[{"OBJECT_NAME":"TIANYI D","OBJECT_ID":"2025-103D","EPOCH":"2026-03-09T23:34:58.761120","MEAN_MOTION":15.17585696,"ECCENTRICITY":0.00029978,"INCLINATION":97.3899,"RA_OF_ASC_NODE":142.5822,"ARG_OF_PERICENTER":153.0168,"MEAN_ANOMALY":207.1222,"EPHEMERIS_TYPE":0,"CLASSIFICATION_TYPE":"U","NORAD_CAT_ID":64051,"ELEMENT_SET_NO":999,"REV_AT_EPOCH":4495,"BSTAR":0.00030791157,"MEAN_MOTION_DOT":6.122e-5,"MEAN_MOTION_DDOT":0},{"OBJECT_NAME":"FLOCK 4H-9","OBJECT_ID":"2025-276AY","EPOCH":"2026-03-09T17:17:17.232576","MEAN_MOTION":15.19128409,"ECCENTRICITY":0.00025136,"INCLINATION":97.4289,"RA_OF_ASC_NODE":144.0635,"ARG_OF_PERICENTER":350.5298,"MEAN_ANOMALY":9.5889,"EPHEMERIS_TYPE":0,"CLASSIFICATION_TYPE":"U","NORAD_CAT_ID":66712,"ELEMENT_SET_NO":999,"REV_AT_EPOCH":1532,"BSTAR":0.00033915834,"MEAN_MOTION_DOT":7.058e-5,"MEAN_MOTION_DDOT":0}]
